<?xml version="1.0"?>
<gpx xmlns="http://www.topografix.com/GPX/1/1" xmlns:xsi="http://www.w3.org/2001/XMLSchema-instance" version="1.1" creator="AllTrails.com" xsi:schemaLocation="http://www.topografix.com/GPX/1/1 http://www.topografix.com/GPX/1/1/gpx.xsd">
  <metadata>
    <name><![CDATA[Custom route]]></name>
    <desc><![CDATA[]]></desc>
    <link href="http://www.alltrails.com">
      <text>AllTrails, LLC</text>
    </link>
    <bounds minlat="-7.60762" minlon="112.58414" maxlat="-7.60175" maxlon="112.59108"/>
  </metadata>
  <trk>
    <name><![CDATA[Custom route]]></name>
    <src>AllTrails</src>
    <trkseg>
      <trkpt lat="-7.60747" lon="112.58855">
        <ele>404.82</ele>
      </trkpt>
      <trkpt lat="-7.60708" lon="112.58671">
        <ele>385.23</ele>
      </trkpt>
      <trkpt lat="-7.60683" lon="112.58596">
        <ele>374.11</ele>
      </trkpt>
      <trkpt lat="-7.60665" lon="112.58535">
        <ele>370.67</ele>
      </trkpt>
      <trkpt lat="-7.60637" lon="112.58452">
        <ele>363.34</ele>
      </trkpt>
      <trkpt lat="-7.60616" lon="112.58414">
        <ele>355.73</ele>
      </trkpt>
      <trkpt lat="-7.60605" lon="112.58421">
        <ele>355.73</ele>
      </trkpt>
      <trkpt lat="-7.60605" lon="112.58421">
        <ele>355.73</ele>
      </trkpt>
      <trkpt lat="-7.60571" lon="112.58454">
        <ele>356.99</ele>
      </trkpt>
      <trkpt lat="-7.60561" lon="112.58468">
        <ele>356.97</ele>
      </trkpt>
      <trkpt lat="-7.60491" lon="112.58541">
        <ele>357.11</ele>
      </trkpt>
      <trkpt lat="-7.60473" lon="112.58562">
        <ele>356.64</ele>
      </trkpt>
      <trkpt lat="-7.60427" lon="112.58611">
        <ele>353.12</ele>
      </trkpt>
      <trkpt lat="-7.60412" lon="112.58622">
        <ele>350.94</ele>
      </trkpt>
      <trkpt lat="-7.60396" lon="112.5863">
        <ele>349.14</ele>
      </trkpt>
      <trkpt lat="-7.60381" lon="112.58635">
        <ele>349.8</ele>
      </trkpt>
      <trkpt lat="-7.60355" lon="112.58641">
        <ele>347.04</ele>
      </trkpt>
      <trkpt lat="-7.60324" lon="112.58644">
        <ele>343.82</ele>
      </trkpt>
      <trkpt lat="-7.60306" lon="112.58647">
        <ele>342.66</ele>
      </trkpt>
      <trkpt lat="-7.60306" lon="112.58647">
        <ele>342.66</ele>
      </trkpt>
      <trkpt lat="-7.60284" lon="112.58648">
        <ele>342.12</ele>
      </trkpt>
      <trkpt lat="-7.60286" lon="112.58691">
        <ele>344.72</ele>
      </trkpt>
      <trkpt lat="-7.60281" lon="112.5878">
        <ele>349.92</ele>
      </trkpt>
      <trkpt lat="-7.60283" lon="112.58796">
        <ele>348.53</ele>
      </trkpt>
      <trkpt lat="-7.6029" lon="112.58814">
        <ele>347.67</ele>
      </trkpt>
      <trkpt lat="-7.6029" lon="112.58821">
        <ele>347.67</ele>
      </trkpt>
      <trkpt lat="-7.6029" lon="112.58827">
        <ele>348.83</ele>
      </trkpt>
      <trkpt lat="-7.60287" lon="112.58831">
        <ele>348.83</ele>
      </trkpt>
      <trkpt lat="-7.60284" lon="112.58834">
        <ele>348.83</ele>
      </trkpt>
      <trkpt lat="-7.6028" lon="112.58835">
        <ele>348.83</ele>
      </trkpt>
      <trkpt lat="-7.6025" lon="112.58834">
        <ele>348.23</ele>
      </trkpt>
      <trkpt lat="-7.60246" lon="112.58836">
        <ele>348.23</ele>
      </trkpt>
      <trkpt lat="-7.60242" lon="112.58838">
        <ele>349.03</ele>
      </trkpt>
      <trkpt lat="-7.60218" lon="112.58863">
        <ele>353.69</ele>
      </trkpt>
      <trkpt lat="-7.60208" lon="112.58877">
        <ele>353.93</ele>
      </trkpt>
      <trkpt lat="-7.60197" lon="112.58915">
        <ele>357.03</ele>
      </trkpt>
      <trkpt lat="-7.60175" lon="112.58954">
        <ele>357.48</ele>
      </trkpt>
      <trkpt lat="-7.6022" lon="112.58979">
        <ele>368.5</ele>
      </trkpt>
      <trkpt lat="-7.6023" lon="112.5898">
        <ele>368.62</ele>
      </trkpt>
      <trkpt lat="-7.60233" lon="112.58994">
        <ele>368.62</ele>
      </trkpt>
      <trkpt lat="-7.60285" lon="112.59028">
        <ele>372.76</ele>
      </trkpt>
      <trkpt lat="-7.60279" lon="112.59042">
        <ele>374.56</ele>
      </trkpt>
      <trkpt lat="-7.603" lon="112.5904">
        <ele>373.84</ele>
      </trkpt>
      <trkpt lat="-7.60312" lon="112.59042">
        <ele>373.84</ele>
      </trkpt>
      <trkpt lat="-7.60324" lon="112.5904">
        <ele>374.42</ele>
      </trkpt>
      <trkpt lat="-7.6033" lon="112.5903">
        <ele>376.28</ele>
      </trkpt>
      <trkpt lat="-7.60334" lon="112.59018">
        <ele>375.46</ele>
      </trkpt>
      <trkpt lat="-7.60332" lon="112.59006">
        <ele>375.44</ele>
      </trkpt>
      <trkpt lat="-7.60339" lon="112.59009">
        <ele>375.44</ele>
      </trkpt>
      <trkpt lat="-7.60371" lon="112.59033">
        <ele>380.77</ele>
      </trkpt>
      <trkpt lat="-7.60383" lon="112.59036">
        <ele>382.29</ele>
      </trkpt>
      <trkpt lat="-7.60421" lon="112.59067">
        <ele>390.18</ele>
      </trkpt>
      <trkpt lat="-7.6043" lon="112.59072">
        <ele>390.18</ele>
      </trkpt>
      <trkpt lat="-7.6043" lon="112.59072">
        <ele>390.18</ele>
      </trkpt>
      <trkpt lat="-7.60437" lon="112.59075">
        <ele>391.66</ele>
      </trkpt>
      <trkpt lat="-7.60466" lon="112.59101">
        <ele>399.48</ele>
      </trkpt>
      <trkpt lat="-7.60487" lon="112.59098">
        <ele>395.57</ele>
      </trkpt>
      <trkpt lat="-7.60501" lon="112.59102">
        <ele>399.61</ele>
      </trkpt>
      <trkpt lat="-7.60531" lon="112.59099">
        <ele>399.99</ele>
      </trkpt>
      <trkpt lat="-7.60539" lon="112.59095">
        <ele>400.07</ele>
      </trkpt>
      <trkpt lat="-7.60544" lon="112.59084">
        <ele>400.07</ele>
      </trkpt>
      <trkpt lat="-7.60563" lon="112.59079">
        <ele>403.69</ele>
      </trkpt>
      <trkpt lat="-7.6057" lon="112.59094">
        <ele>406.35</ele>
      </trkpt>
      <trkpt lat="-7.60602" lon="112.59106">
        <ele>408.47</ele>
      </trkpt>
      <trkpt lat="-7.60623" lon="112.59097">
        <ele>414.92</ele>
      </trkpt>
      <trkpt lat="-7.60657" lon="112.59101">
        <ele>420.56</ele>
      </trkpt>
      <trkpt lat="-7.6067" lon="112.59108">
        <ele>420.56</ele>
      </trkpt>
      <trkpt lat="-7.60681" lon="112.59093">
        <ele>423.26</ele>
      </trkpt>
      <trkpt lat="-7.60715" lon="112.59069">
        <ele>427.98</ele>
      </trkpt>
      <trkpt lat="-7.60726" lon="112.59058">
        <ele>430.02</ele>
      </trkpt>
      <trkpt lat="-7.60753" lon="112.59052">
        <ele>435.62</ele>
      </trkpt>
      <trkpt lat="-7.60753" lon="112.59052">
        <ele>435.62</ele>
      </trkpt>
      <trkpt lat="-7.60756" lon="112.59052">
        <ele>440.73</ele>
      </trkpt>
      <trkpt lat="-7.60756" lon="112.59035">
        <ele>437.05</ele>
      </trkpt>
      <trkpt lat="-7.60762" lon="112.58969">
        <ele>422.27</ele>
      </trkpt>
      <trkpt lat="-7.60761" lon="112.58949">
        <ele>419.79</ele>
      </trkpt>
      <trkpt lat="-7.60757" lon="112.58911">
        <ele>413.77</ele>
      </trkpt>
      <trkpt lat="-7.60752" lon="112.58882">
        <ele>407.02</ele>
      </trkpt>
    </trkseg>
  </trk>
</gpx>
